CORAL                   
1 67684U 98067YA  26095.27882438  .00113769  00000+0  13998-2 0  9993
2 67684  51.6289 298.4624 0013683 274.6624  85.2805 15.59272459  8938
GXIBA-1                 
1 67685U 98067YB  26094.77752869  .00056407  00000+0  83058-3 0  9992
2 67685  51.6301 301.8662 0012502 279.3255  80.6322 15.54782829  8841
UITMSAT-2               
1 67686U 98067YC  26095.27206808  .00071028  00000+0  99793-3 0  9995
2 67686  51.6300 299.1708 0009567 255.7390 104.2539 15.55998102  8922
HMU-SAT2                
1 67687U 98067YD  26094.78362938  .00054021  00000+0  80536-3 0  9997
2 67687  51.6310 301.9093 0009085 256.2021 103.7959 15.54504888  8760
LEOPARD                 
1 67688U 98067YE  26094.83129328  .00053651  00000+0  77371-3 0  9999
2 67688  51.6311 301.4769 0009245 254.0354 105.9619 15.55413317  8775
CREW DRAGON 12          
1 67796U 26031A   26095.03712624  .00009326  00000+0  17854-3 0  9991
2 67796  51.6327 302.0967 0006294 273.6206  86.4063 15.48778120560387
PROGRESS-MS 33          
1 68319U 26058A   26095.03712624  .00009326  00000+0  17854-3 0  9992
2 68319  51.6327 302.0967 0006294 273.6206  86.4063 15.48778120  1895
